HIMAWARI-8              
1 40267U 14060A   23345.52886007 -.00000244  00000+0  00000+0 0  9992
2 40267   0.0201 252.9544 0000505  13.4574 144.6171  1.00277259 33653
